ONEWEB-0656             
1 55817U 23029X   25081.84511769  .00000049  00000+0  88577-4 0  9990
2 55817  87.9336   4.2490 0001389  92.6245 267.5047 13.20775249101577
ONEWEB-0657             
1 55818U 23029Y   25081.88725850  .00000083  00000+0  17509-3 0  9997
2 55818  87.9229  34.6832 0001076  79.7753 280.3501 13.19726511 99388
ONEWEB-0658             
1 55819U 23029Z   25081.88251638  .00000107  00000+0  23470-3 0  9997
2 55819  87.9224  34.6177 0002105  66.2690 293.8663 13.19726745 99399
ONEWEB-0660             
1 55820U 23029AA  25081.82431880  .00000125  00000+0  30145-3 0  9999
2 55820  87.9085  19.4325 0002224  76.5795 283.5583 13.14501380100104
ONEWEB-0661             
1 55821U 23029AB  25081.85920042 -.00000038  00000+0 -13591-3 0  9997
2 55821  87.9083  19.4956 0002265  80.9470 279.1916 13.14501831100097
ONEWEB-0662             
1 55822U 23029AC  25081.89408303  .00000312  00000+0  80736-3 0  9991
2 55822  87.9084  19.4956 0002240  75.3763 284.7615 13.14501746100144
ONEWEB-0663             
1 55823U 23029AD  25081.83035874  .00000085  00000+0  17643-3 0  9999
2 55823  87.9337   4.3085 0002306  74.2073 285.9315 13.20828791101563
ONEWEB-0664             
1 55824U 23029AE  25081.83250641 -.00000052  00000+0 -15893-3 0  9992
2 55824  87.9337   4.3270 0002097  90.2568 269.8806 13.20772893101561
